[{"OBJECT_NAME":"STARLINK-5674","OBJECT_ID":"2023-015S","EPOCH":"2026-03-09T09:55:58.923552","MEAN_MOTION":15.02632802,"ECCENTRICITY":0.00013779,"INCLINATION":43.0087,"RA_OF_ASC_NODE":327.3884,"ARG_OF_PERICENTER":256.6107,"MEAN_ANOMALY":103.4582,"EPHEMERIS_TYPE":0,"CLASSIFICATION_TYPE":"U","NORAD_CAT_ID":55465,"ELEMENT_SET_NO":999,"REV_AT_EPOCH":17071,"BSTAR":0.00089165999,"MEAN_MOTION_DOT":0.00011892,"MEAN_MOTION_DDOT":0},{"OBJECT_NAME":"CZ-6A DEB","OBJECT_ID":"2022-151EM","EPOCH":"2026-03-09T21:12:10.844640","MEAN_MOTION":15.1479521,"ECCENTRICITY":0.00732342,"INCLINATION":98.809,"RA_OF_ASC_NODE":212.6624,"ARG_OF_PERICENTER":10.5605,"MEAN_ANOMALY":349.714,"EPHEMERIS_TYPE":0,"CLASSIFICATION_TYPE":"U","NORAD_CAT_ID":54413,"ELEMENT_SET_NO":999,"REV_AT_EPOCH":17915,"BSTAR":0.0020661814,"MEAN_MOTION_DOT":0.00041137,"MEAN_MOTION_DDOT":0}]
